OBJECT_NAME,OBJECT_ID,EPOCH,MEAN_MOTION,ECCENTRICITY,INCLINATION,RA_OF_ASC_NODE,ARG_OF_PERICENTER,MEAN_ANOMALY,EPHEMERIS_TYPE,CLASSIFICATION_TYPE,NORAD_CAT_ID,ELEMENT_SET_NO,REV_AT_EPOCH,BSTAR,MEAN_MOTION_DOT,MEAN_MOTION_DDOT
BEIDOU-3 G1,2018-085A,2026-07-22T13:58:08.340672,1.00272967,.00083134,2.9560,96.4144,357.3143,216.1265,0,U,43683,999,2841,0,-.107E-5,0
GSAT-29,2018-089A,2026-07-22T11:35:03.628896,1.00270431,.00032731,0.0162,294.1293,167.7430,67.1551,0,U,43698,999,2814,0,.89E-6,0
ES'HAIL 2,2018-090A,2026-07-22T11:26:41.930880,1.00273626,.00025025,0.0100,20.5670,134.0408,343.0902,0,U,43700,999,2803,0,.148E-5,0
GEO-KOMPSAT-2A,2018-100A,2026-07-22T12:40:02.597376,1.00268928,.00025898,0.0201,77.8265,21.9227,158.8059,0,U,43823,999,2798,0,0,0
GSAT-11,2018-100B,2026-07-22T08:14:57.533280,1.00271799,.0008103,0.0854,264.3879,195.7825,37.6569,0,U,43824,999,2783,0,-.74E-6,0
GSAT-7A,2018-105A,2026-07-22T03:03:58.068288,1.00273616,.00019719,0.1015,91.0483,22.7733,294.8083,0,U,43864,999,2779,0,.29E-6,0
COSMOS 2533,2018-107A,2026-07-22T15:04:33.385152,1.00271810,.00002668,0.0321,121.0004,99.4943,16.0047,0,U,43867,999,2780,0,-.35E-6,0
TJS-3,2018-110A,2026-07-22T12:31:38.500896,1.00270949,.0002758,2.6334,80.0664,84.7757,111.5470,0,U,43874,999,2777,0,-.215E-5,0
ZHONGXING-2D,2019-001A,2026-07-22T15:21:39.245184,1.00271891,.0000417,0.0106,223.2799,166.9070,270.6551,0,U,43920,999,5443,0,0,0
HELLAS-SAT 4 & SGS-1,2019-007A,2026-07-22T11:30:26.571744,1.00272260,.00059901,0.0645,126.9871,19.7770,5.0776,0,U,44034,999,2772,0,.156E-5,0
GSAT-31,2019-007B,2026-07-22T02:59:43.475136,1.00274777,.00008426,0.0309,100.0605,108.6804,183.9593,0,U,44035,999,2731,0,.128E-5,0
NUSANTARA SATU,2019-009A,2026-07-22T00:02:25.496736,1.00270298,.00045998,0.0311,119.8691,4.9763,321.5092,0,U,44048,999,2711,0,-.232E-5,0
ZHONGXING-6C,2019-012A,2026-07-22T15:21:46.732608,1.00272153,.00151061,0.0638,69.5324,345.7489,246.0106,0,U,44067,999,2709,0,-.331E-5,0
WGS 10 (USA 291),2019-014A,2026-07-22T14:09:22.165632,1.00272273,.00002908,0.0135,76.5078,4.9520,131.5115,0,U,44071,999,2697,0,.5E-6,0
TIANLIAN 2-01,2019-017A,2026-07-22T11:41:18.031200,1.00271708,.0001764,0.6285,83.0448,73.9388,35.5782,0,U,44076,999,2700,0,-.103E-5,0
ARABSAT-6A,2019-021A,2026-07-22T00:44:59.969760,1.00263942,.00028998,0.0444,7.3224,239.6978,94.4745,0,U,44186,999,2650,0,.156E-5,0
BEIDOU-3 IGSO-1,2019-023A,2026-07-22T10:37:38.665632,1.00281841,.0026194,58.7457,37.2857,223.4912,318.1363,0,U,44204,999,756,0,-.208E-5,0
BEIDOU-2 G8,2019-027A,2026-07-22T15:25:46.350048,1.00270180,.00095803,1.7460,74.5118,284.0006,317.8242,0,U,44231,999,2643,0,-.245E-5,0
YAMAL 601,2019-031A,2026-07-22T11:33:18.797184,1.00272827,.0002701,0.0195,94.5596,24.3417,43.6465,0,U,44307,999,2628,0,.123E-5,0
AT&T T-16,2019-034A,2026-07-22T10:21:38.824704,1.00271093,.00007889,0.0150,76.7135,295.4313,342.5786,0,U,44333,999,2598,0,-.112E-5,0
EUTELSAT 7C,2019-034B,2026-07-22T07:55:59.350656,1.00270528,.00035123,0.0762,181.6901,283.4526,320.9307,0,U,44334,999,718,0,.51E-6,0
BEIDOU-3 IGSO-2,2019-035A,2026-07-21T18:25:21.211104,1.00289985,.00390505,55.2573,158.5594,212.8700,322.7485,0,U,44337,999,2601,0,-.106E-5,0
COSMOS 2539,2019-048A,2026-07-22T07:57:29.208384,1.00274394,.00006536,0.0292,109.1828,79.5992,242.6658,0,U,44457,999,2557,0,.85E-6,0
EDRS-C,2019-049A,2026-07-22T12:31:38.501760,1.00271390,.00011049,0.0100,107.7142,16.9609,145.9922,0,U,44475,999,2556,0,-.259E-5,0
INTELSAT 39 (IS-39),2019-049B,2026-07-22T11:36:55.949760,1.00271381,.000092,0.0137,38.0141,323.6232,174.7658,0,U,44476,999,2548,0,.37E-6,0
AMOS-17,2019-050A,2026-07-22T06:16:10.562304,1.00271808,.00017392,0.0263,324.2393,159.8887,286.9135,0,U,44479,999,2553,0,.112E-5,0
AEHF-5 (USA 292),2019-051A,2026-07-22T14:18:03.670848,1.00272300,.00646665,1.4251,338.9949,357.2998,271.6530,0,U,44481,999,2561,0,-.253E-5,0
EUTELSAT 5 WEST B,2019-067A,2026-07-22T07:52:37.173792,1.00271991,.00032595,0.0733,326.0758,153.3120,293.8288,0,U,44624,999,2478,0,-.39E-6,0
TJS-4,2019-070A,2026-07-22T15:08:25.514304,1.00273601,.00001545,0.0915,259.0972,351.6644,0.3104,0,U,44637,999,2489,0,-.167E-5,0
TIBA-1,2019-080A,2026-07-22T11:29:26.668032,1.00277054,.00023656,0.0507,359.5925,135.9495,12.5775,0,U,44800,999,2441,0,.159E-5,0
INMARSAT GX5,2019-080B,2026-07-22T07:57:06.744384,1.00271603,.00023032,0.0375,25.3425,101.6866,303.3221,0,U,44801,999,713,0,.78E-6,0
JCSAT-18 (KACIFIC 1),2019-091A,2026-07-22T12:16:38.465184,1.00269759,.0000268,0.0473,243.1606,302.0435,89.1704,0,U,44868,999,2436,0,-.198E-5,0
