{"epoch":1784762836,"count":18316,"objects":[{"id":"43683","name":"BEIDOU 3G1","type":"PAYLOAD","l1":"1 43683U 18085A   26203.58204098 -.00000107  00000-0  00000-0 0  9994","l2":"2 43683   2.9560  96.4144 0008313 357.3143 216.1265  1.00272967 28419"},{"id":"43698","name":"GSAT 29","type":"PAYLOAD","l1":"1 43698U 18089A   26203.48268089  .00000089  00000-0  00000-0 0  9991","l2":"2 43698   0.0162 294.1293 0003273 167.7430  67.1551  1.00270431 28142"},{"id":"43700","name":"ES'HAIL 2","type":"PAYLOAD","l1":"1 43700U 18090A   26203.47687420  .00000148  00000-0  00000-0 0  9996","l2":"2 43700   0.0100  20.5670 0002502 134.0408 343.0902  1.00273626 28037"},{"id":"43823","name":"GEO-KOMPSAT-2A","type":"PAYLOAD","l1":"1 43823U 18100A   26203.52780784  .00000000  00000-0  00000-0 0  9994","l2":"2 43823   0.0201  77.8265 0002590  21.9227 158.8059  1.00268928 27987"},{"id":"43824","name":"GSAT 11","type":"PAYLOAD","l1":"1 43824U 18100B   26203.34372145 -.00000074  00000-0  00000-0 0  9995","l2":"2 43824   0.0854 264.3879 0008103 195.7825  37.6569  1.00271799 27830"},{"id":"43864","name":"GSAT 7A","type":"PAYLOAD","l1":"1 43864U 18105A   26203.12775542  .00000029  00000-0  00000-0 0  9997","l2":"2 43864   0.1015  91.0483 0001972  22.7733 294.8083  1.00273616 27797"},{"id":"43867","name":"COSMOS 2533","type":"PAYLOAD","l1":"1 43867U 18107A   26203.62816418 -.00000035  00000-0  00000-0 0  9993","l2":"2 43867   0.0321 121.0004 0000267  99.4943  16.0047  1.00271810 27802"},{"id":"43874","name":"TJS-3","type":"PAYLOAD","l1":"1 43874U 18110A   26203.52197339 -.00000215  00000-0  00000+0 0  9997","l2":"2 43874   2.6334  80.0664 0002758  84.7757 111.5470  1.00270949 27774"},{"id":"43920","name":"CHINASAT 2D","type":"PAYLOAD","l1":"1 43920U 19001A   26203.64003756  .00000000  00000-0  00000-0 0  9993","l2":"2 43920   0.0106 223.2799 0000417 166.9070 270.6551  1.00271891 54433"},{"id":"44034","name":"SAUDIGEOSAT1/HELLASSAT4","type":"PAYLOAD","l1":"1 44034U 19007A   26203.47947421  .00000156  00000-0  00000-0 0  9995","l2":"2 44034   0.0645 126.9871 0005990  19.7770   5.0776  1.00272260 27723"},{"id":"44035","name":"GSAT 31","type":"PAYLOAD","l1":"1 44035U 19007B   26203.12480874  .00000128  00000-0  00000-0 0  9991","l2":"2 44035   0.0309 100.0605 0000843 108.6804 183.9593  1.00274777 27310"},{"id":"44048","name":"NUSANTARA SATU","type":"PAYLOAD","l1":"1 44048U 19009A   26203.00168399 -.00000232  00000-0  00000-0 0  9996","l2":"2 44048   0.0311 119.8691 0004600   4.9763 321.5092  1.00270298 27113"},{"id":"44067","name":"CHINASAT 6C","type":"PAYLOAD","l1":"1 44067U 19012A   26203.64012422 -.00000331  00000-0  00000-0 0  9996","l2":"2 44067   0.0638  69.5324 0015106 345.7489 246.0106  1.00272153 27090"},{"id":"44071","name":"WGS 10 (USA 291)","type":"PAYLOAD","l1":"1 44071U 19014A   26203.58983988  .00000050  00000-0  00000-0 0  9997","l2":"2 44071   0.0135  76.5078 0000291   4.9520 131.5115  1.00272273 26977"},{"id":"44076","name":"TIANLIAN 2-01","type":"PAYLOAD","l1":"1 44076U 19017A   26203.48701425 -.00000103  00000-0  00000-0 0  9998","l2":"2 44076   0.6285  83.0448 0001764  73.9388  35.5782  1.00271708 27002"},{"id":"44186","name":"ARABSAT 6A","type":"PAYLOAD","l1":"1 44186U 19021A   26203.03124965  .00000156  00000-0  00000-0 0  9991","l2":"2 44186   0.0444   7.3224 0002900 239.6978  94.4745  1.00263942 26503"},{"id":"44204","name":"BEIDOU 3 IGSO-1","type":"PAYLOAD","l1":"1 44204U 19023A   26203.44280863 -.00000208  00000-0  00000+0 0  9997","l2":"2 44204  58.7457  37.2857 0026194 223.4912 318.1363  1.00281841  7567"},{"id":"44231","name":"BEIDOU 2 G8","type":"PAYLOAD","l1":"1 44231U 19027A   26203.64289757 -.00000245  00000-0  00000-0 0  9996","l2":"2 44231   1.7460  74.5118 0009580 284.0006 317.8242  1.00270180 26433"},{"id":"44307","name":"YAMAL 601","type":"PAYLOAD","l1":"1 44307U 19031A   26203.48146756  .00000123  00000-0  00000-0 0  9992","l2":"2 44307   0.0195  94.5596 0002701  24.3417  43.6465  1.00272827 26289"},{"id":"44333","name":"AT&T T-16","type":"PAYLOAD","l1":"1 44333U 19034A   26203.43169936 -.00000112  00000-0  00000-0 0  9993","l2":"2 44333   0.0150  76.7135 0000789 295.4313 342.5786  1.00271093 25987"},{"id":"44334","name":"EUTE 7C","type":"PAYLOAD","l1":"1 44334U 19034B   26203.33054804  .00000051  00000-0  00000-0 0  9991","l2":"2 44334   0.0762 181.6901 0003512 283.4526 320.9307  1.00270528  7187"},{"id":"44337","name":"BEIDOU 3 IGSO-2","type":"PAYLOAD","l1":"1 44337U 19035A   26202.76760661 -.00000106  00000-0  00000-0 0  9998","l2":"2 44337  55.2573 158.5594 0039051 212.8700 322.7485  1.00289985 26017"},{"id":"44457","name":"COSMOS 2539","type":"PAYLOAD","l1":"1 44457U 19048A   26203.33158806  .00000085  00000-0  00000-0 0  9996","l2":"2 44457   0.0292 109.1828 0000654  79.5992 242.6658  1.00274394 25576"},{"id":"44475","name":"EDRS-C","type":"PAYLOAD","l1":"1 44475U 19049A   26203.52197340 -.00000259  00000-0  00000-0 0  9998","l2":"2 44475   0.0100 107.7142 0001105  16.9609 145.9922  1.00271390 25560"},{"id":"44476","name":"INTELSAT 39","type":"PAYLOAD","l1":"1 44476U 19049B   26203.48398090  .00000037  00000-0  00000-0 0  9992","l2":"2 44476   0.0137  38.0141 0000920 323.6232 174.7658  1.00271381 25487"},{"id":"44479","name":"AMOS 17","type":"PAYLOAD","l1":"1 44479U 19050A   26203.26123336  .00000112  00000-0  00000-0 0  9996","l2":"2 44479   0.0263 324.2393 0001739 159.8887 286.9135  1.00271808 25539"},{"id":"44481","name":"AEHF 5 (USA 292)","type":"PAYLOAD","l1":"1 44481U 19051A   26203.59587582 -.00000253  00000-0  00000-0 0  9990","l2":"2 44481   1.4251 338.9949 0064667 357.2998 271.6530  1.00272300 25616"},{"id":"44624","name":"EUTE 5W B","type":"PAYLOAD","l1":"1 44624U 19067A   26203.32820803 -.00000039  00000-0  00000-0 0  9995","l2":"2 44624   0.0733 326.0758 0003259 153.3120 293.8288  1.00271991 24781"},{"id":"44637","name":"TJS-4","type":"PAYLOAD","l1":"1 44637U 19070A   26203.63085086 -.00000167  00000-0  00000-0 0  9995","l2":"2 44637   0.0915 259.0972 0000154 351.6644   0.3104  1.00273601 24895"},{"id":"44800","name":"TIBA-1","type":"PAYLOAD","l1":"1 44800U 19080A   26203.47878088  .00000159  00000-0  00000-0 0  9992","l2":"2 44800   0.0507 359.5925 0002366 135.9495  12.5775  1.00277054 24415"},{"id":"44801","name":"INMARSAT GX5","type":"PAYLOAD","l1":"1 44801U 19080B   26203.33132806  .00000078  00000-0  00000-0 0  9999","l2":"2 44801   0.0375  25.3425 0002303 101.6866 303.3221  1.00271603  7136"},{"id":"44868","name":"JCSAT 18","type":"PAYLOAD","l1":"1 44868U 19091A   26203.51155631 -.00000198  00000-0  00000-0 0  9999","l2":"2 44868   0.0473 243.1606 0000268 302.0435  89.1704  1.00269759 24364"}]}